DIRECTV 10              
1 31862U 07032A   22338.37450269 -.00000094  00000+0  00000+0 0  9998
2 31862   0.0309 143.3400 0000378  60.0850 261.7799  1.00271500 32659
SPACEWAY 3              
1 32018U 07036A   22338.37607166 -.00000142  00000+0  00000+0 0  9990
2 32018   0.6637  91.1053 0000349 349.1936  33.3101  1.00271239 33617
BSAT-3A                 
1 32019U 07036B   22338.51312519 -.00000341  00000+0  00000+0 0  9993
2 32019   0.0405 234.8855 0004191  10.8149 122.1941  1.00272731 37574
OPTUS D2                
1 32252U 07044A   22338.59323234 -.00000174  00000+0  00000+0 0  9999
2 32252   0.0492 106.7515 0003773 144.0204 188.1899  1.00271520 55621
INTELSAT 11 (IS-11)     
1 32253U 07044B   22338.38635713 -.00000259  00000+0  00000+0 0  9999
2 32253   0.2201  94.0659 0003135 180.4213 254.7887  1.00271650 55559
WGS F1 (USA 195)        
1 32258U 07046A   22338.32429567  .00000049  00000+0  00000+0 0  9994
2 32258   0.0203 337.5525 0000387 259.3247 318.9760  1.00269261 39404
SKYNET 5B               
1 32294U 07056B   22338.32821810  .00000150  00000+0  00000+0 0  9995
2 32294   1.9523  87.8778 0004074 163.3879 325.1117  1.00272865 55257
ASTRA 4A (SIRIUS 4)     
1 32299U 07057A   22338.30396476  .00000041  00000+0  00000+0 0  9993
2 32299   0.0203  25.9350 0003071 229.2045 292.2059  1.00272128 38723
HORIZONS-2              
1 32388U 07063B   22338.38025558 -.00000245  00000+0  00000+0 0  9994
2 32388   0.0150 314.2641 0002286 316.5759 225.4364  1.00276366 54878
THURAYA-3               
1 32404U 08001A   22338.55025543 -.00000296  00000+0  00000+0 0  9995
2 32404   4.1998  25.8223 0002178 227.3797 116.7397  1.00271743 54540
EXPRESS-AM33            
1 32478U 08003A   22338.39306883 -.00000066  00000+0  00000+0 0  9994
2 32478   1.4868  90.8341 0004034 165.7170 308.7645  1.00277367 40792
THOR 5                  
1 32487U 08006A   22338.31646697 -.00000001  00000+0  00000+0 0  9998
2 32487   0.0159 312.4754 0002711 303.2228 290.5783  1.00269778 54360
AMC-14                  
1 32708U 08011A   22338.33035368  .00000069  00000+0  00000+0 0  9992
2 32708  22.3127  36.1020 0034940 355.1058 178.3303  1.00274272 55211
DIRECTV 11              
1 32729U 08013A   22338.37520000 -.00000117  00000+0  00000+0 0  9998
2 32729   0.0478 126.6531 0000665 145.2500 197.1771  1.00271833 32656
ICO G1                  
1 32763U 08016A   22338.23303395 -.00000166  00000+0  00000+0 0  9994
2 32763   4.1908  28.9134 0002412 218.3940 176.7804  1.00272069 53602
VINASAT-1               
1 32767U 08018A   22338.58384030 -.00000319  00000+0  00000+0 0  9993
2 32767   0.0185  26.1223 0001839 233.4744 155.9238  1.00273480 53652
STAR ONE C2             
1 32768U 08018B   22338.38199888 -.00000268  00000+0  00000+0 0  9990
2 32768   0.0298 351.9661 0002691 269.2618 244.4799  1.00270888 53731
AMOS-3                  
1 32794U 08022A   22338.32202132 -.00000026  00000+0  00000+0 0  9997
2 32794   0.0393 123.6461 0002345  75.8713 345.3914  1.00272175 69403
GALAXY 18 (G-18)        
1 32951U 08024A   22338.37049309  .00000034  00000+0  00000+0 0  9992
2 32951   0.0440 122.2316 0003056 126.5841 194.7255  1.00271115 32903
CHINASAT 9 (ZX 9)       
1 33051U 08028A   22338.57621259 -.00000238  00000+0  00000+0 0  9997
2 33051   0.0421 124.2284 0005149 144.3231 104.4660  1.00270974 53099
SKYNET 5C               
1 33055U 08030A   22338.39115120 -.00000130  00000+0  00000+0 0  9990
2 33055   0.4698  86.6053 0004606 175.4039 294.1803  1.00271786 53016
TURKSAT 3A              
1 33056U 08030B   22338.46646736  .00000155  00000+0  00000+0 0  9997
2 33056   0.0523 123.3711 0003640 103.5008  56.3159  1.00269244 39411
INTELSAT 25 (IS-25)     
1 33153U 08034A   22338.38871059 -.00000215  00000+0  00000+0 0  9996
2 33153   0.0182 323.2911 0003156 293.9745 284.3638  1.00271455 52751
BADR-6                  
1 33154U 08034B   22338.32830528  .00000153  00000+0  00000+0 0  9997
2 33154   0.0632  52.5325 0004359 231.4438 293.2985  1.00271287 52819
ECHOSTAR 11             
1 33207U 08035A   22338.37302088 -.00000048  00000+0  00000+0 0  9991
2 33207   0.0218 296.5753 0002769 307.6301 213.2789  1.00272392 38288
SUPERBIRD-C2            
1 33274U 08038A   22338.58955991 -.00000241  00000+0  00000+0 0  9993
2 33274   0.0403 116.7272 0002269 156.3276 156.5313  1.00272409 92788
AMC-21                  
1 33275U 08038B   22338.56049990  .00000046  00000+0  00000+0 0  9997
2 33275   0.0542  81.8366 0002563 174.8393 253.5567  1.00271544 52550
INMARSAT 4-F3           
1 33278U 08039A   22338.50031744 -.00000133  00000+0  00000+0 0  9991
2 33278   3.3648  21.8324 0002881 234.3803 259.1982  1.00270852 33604
NIMIQ 4                 
1 33373U 08044A   22338.37859944 -.00000211  00000+0  00000+0 0  9995
2 33373   0.0147 323.2162 0002238 289.0473 235.2087  1.00271063 52048
GALAXY 19 (G-19)        
1 33376U 08045A   22338.37563583 -.00000130  00000+0  00000+0 0  9990
2 33376   0.0469 119.6210 0002781 137.0906 214.6955  1.00271668 51961
ASTRA 1M                
1 33436U 08057A   22338.32708497  .00000129  00000+0  00000+0 0  9997
2 33436   0.0501 108.9911 0003037  96.0808   5.0073  1.00271895 32788
CIEL-2                  
1 33453U 08063A   22338.55545925  .00000067  00000+0  00000+0 0  9994
2 33453   0.0083 356.3419 0003517 270.0116 238.1179  1.00273425 51196
EUTELSAT HOTBIRD 13C    
1 33459U 08065A   22338.32586465  .00000095  00000+0  00000+0 0  9992
2 33459   0.0539  42.5888 0003187 188.1120 332.7733  1.00269329 34409
EUTELSAT 48D            
1 33460U 08065B   22338.39245868 -.00000091  00000+0  00000+0 0  9997
2 33460   1.8914  90.4737 0003709 159.0522 312.4672  1.00271884 51017
FENGYUN 2E              
1 33463U 08066A   22338.49958166 -.00000200  00000+0  00000+0 0  9996
2 33463   6.2829  64.2876 0001005 270.8613   4.8126  1.00274957 51141
EXPRESS-AM44            
1 33595U 09007A   22338.39280734 -.00000080  00000+0  00000+0 0  9992
2 33595   0.1334  84.5668 0000585 193.5128 285.5339  1.00271386 50617
NSS-9                   
1 33749U 09008A   22338.56136044  .00000081  00000+0  00000+0 0  9997
2 33749   0.0265  37.5904 0002285 213.3526 207.5730  1.00272808 50599
EUTELSAT 33E            
1 33750U 09008B   22338.25674549  .00000164  00000+0  00000+0 0  9994
2 33750   0.0568  34.4883 0004156 216.4391 307.6750  1.00274702 50502
TELSTAR 11N             
1 34111U 09009A   22338.38749028 -.00000241  00000+0  00000+0 0  9993
2 34111   0.0170   6.4334 0002518 234.2905 294.4293  1.00271881 33299
EUTELSAT 10A            
1 34710U 09016A   22338.30396476  .00000077  00000+0  00000+0 0  9999
2 34710   0.0532  45.1853 0006034 215.4543 291.8990  1.00272700 28300
WGS F2 (USA 204)        
1 34713U 09017A   22338.40640508  .00000077  00000+0  00000+0 0  9992
2 34713   0.0162 325.7935 0000210 255.7163  55.4963  1.00270277 32671
SES-7 (PROTOSTAR 2)     
1 34941U 09027A   22338.51247932 -.00000336  00000+0  00000+0 0  9991
2 34941   0.0696  91.1716 0002280 174.6099 100.2788  1.00270912 49671
MEASAT-3A               
1 35362U 09032A   22338.57621247 -.00000233  00000+0  00000+0 0  9992
2 35362   0.0390 227.9100 0003657  16.6895 127.7195  1.00272734 49304
GOES 14                 
1 35491U 09033A   22337.64126157 -.00000087  00000+0  00000+0 0  9990
2 35491   0.1892 261.7425 0018185 321.9342 335.4352  1.00271388 49208
FM-5                    
1 35493U 09034A   22338.37781495 -.00000191  00000+0  00000+0 0  9992
2 35493   0.0188 329.3970 0000307 233.1874 280.4749  1.00271912 33704
TERRESTAR-1             
1 35496U 09035A   22338.57751715 -.00000048  00000+0  00000+0 0  9991
2 35496   3.4479  41.6524 0002789 214.4410 274.1866  1.00271625 49191
ASIASAT 5               
1 35696U 09042A   22338.50888124 -.00000298  00000+0  00000+0 0  9996
2 35696   0.0013  58.6916 0001485 199.8996  98.4210  1.00270290 48747
JCSAT-12 (JCSAT-RA)     
1 35755U 09044A   22338.58384028 -.00000319  00000+0  00000+0 0  9990
2 35755   0.0224  72.1767 0000371 175.2925 168.1252  1.00267935 48669
OPTUS D3                
1 35756U 09044B   22338.45987622 -.00000138  00000+0  00000+0 0  9995
2 35756   0.0324   8.4292 0003306 258.7205 127.6718  1.00271799 48610
NIMIQ 5                 
1 35873U 09050A   22338.38051707 -.00000248  00000+0  00000+0 0  9992
2 35873   0.0462 121.2784 0002928 128.1174 248.0830  1.00271833 48417
AMAZONAS 2              
1 35942U 09054A   22338.38278337 -.00000273  00000+0  00000+0 0  9991
2 35942   0.0640 116.7999 0002578  83.1773 310.0537  1.00271603 48245
COMSATBW-1              
1 35943U 09054B   22338.56534152  .00000033  00000+0  00000+0 0  9995
2 35943   0.0576  97.3808 0003214 160.1044  82.4131  1.00272873 48365
NSS-12                  
1 36032U 09058A   22338.40631792  .00000080  00000+0  00000+0 0  9992
2 36032   0.0461  84.6153 0003086 175.4820  16.3927  1.00273593 47973
THOR 6                  
1 36033U 09058B   22338.39481213 -.00000001  00000+0  00000+0 0  9996
2 36033   0.0024  21.3211 0001984 243.9733 309.1900  1.00270395 48063
INTELSAT 14 (IS-14)     
1 36097U 09064A   22338.38600847 -.00000264  00000+0  00000+0 0  9999
2 36097   0.0227  59.6091 0002565 189.3297 278.2198  1.00271259 47662
EUTELSAT 36B            
1 36101U 09065A   22338.25674549  .00000164  00000+0  00000+0 0  9990
2 36101   0.0691  17.2164 0005101 236.4936 307.6669  1.00273206 47773
INTELSAT 15 (IS-15)     
1 36106U 09067A   22338.57386043 -.00000176  00000+0  00000+0 0  9995
2 36106   0.0130 337.7841 0002571 284.4536 102.8776  1.00271587 28284
WGS F3 (USA 211)        
1 36108U 09068A   22337.38660425  .00000105  00000+0  00000+0 0  9996
2 36108   0.2236  95.7714 0003043 203.1058 301.7869  0.99754704 33651
DIRECTV 12              
1 36131U 09075A   22338.37450269 -.00000094  00000+0  00000+0 0  9991
2 36131   0.0443 162.2566 0000029 187.4838 115.5502  1.00270025 33625
